OBJECT_NAME,OBJECT_ID,EPOCH,MEAN_MOTION,ECCENTRICITY,INCLINATION,RA_OF_ASC_NODE,ARG_OF_PERICENTER,MEAN_ANOMALY,EPHEMERIS_TYPE,CLASSIFICATION_TYPE,NORAD_CAT_ID,ELEMENT_SET_NO,REV_AT_EPOCH,BSTAR,MEAN_MOTION_DOT,MEAN_MOTION_DDOT
NUSAT-41 (C PAYNE-G),2023-084N,2026-03-09T12:30:43.490016,15.29665757,.0006231,97.5351,203.7033,323.7107,36.3710,0,U,56944,999,15254,.60137E-3,.17238E-3,0
STARLINK-31017,2023-191H,2026-03-09T12:33:26.021376,15.27578292,.0001668,43.0031,232.1013,264.6398,95.4264,0,U,58515,999,12815,.69856E-5,-.7E-6,0
